[{"OBJECT_NAME":"STARLINK-34522","OBJECT_ID":"2025-133W","EPOCH":"2026-03-09T09:33:10.885824","MEAN_MOTION":15.30177735,"ECCENTRICITY":0.00021578,"INCLINATION":53.1593,"RA_OF_ASC_NODE":118.157,"ARG_OF_PERICENTER":32.2245,"MEAN_ANOMALY":327.8887,"EPHEMERIS_TYPE":0,"CLASSIFICATION_TYPE":"U","NORAD_CAT_ID":64492,"ELEMENT_SET_NO":999,"REV_AT_EPOCH":4114,"BSTAR":0.0007235871,"MEAN_MOTION_DOT":0.00021118,"MEAN_MOTION_DDOT":0},{"OBJECT_NAME":"POEM","OBJECT_ID":"2022-072E","EPOCH":"2026-03-08T08:06:01.299456","MEAN_MOTION":15.22764653,"ECCENTRICITY":0.00236837,"INCLINATION":9.9515,"RA_OF_ASC_NODE":116.6548,"ARG_OF_PERICENTER":142.2805,"MEAN_ANOMALY":217.9074,"EPHEMERIS_TYPE":0,"CLASSIFICATION_TYPE":"U","NORAD_CAT_ID":52939,"ELEMENT_SET_NO":999,"REV_AT_EPOCH":20410,"BSTAR":0.00045784559,"MEAN_MOTION_DOT":0.00012084,"MEAN_MOTION_DDOT":0}]
